OBJECT_NAME,OBJECT_ID,EPOCH,MEAN_MOTION,ECCENTRICITY,INCLINATION,RA_OF_ASC_NODE,ARG_OF_PERICENTER,MEAN_ANOMALY,EPHEMERIS_TYPE,CLASSIFICATION_TYPE,NORAD_CAT_ID,ELEMENT_SET_NO,REV_AT_EPOCH,BSTAR,MEAN_MOTION_DOT,MEAN_MOTION_DDOT
CUTE-1 (CO-55),2003-031E,2026-06-03T13:11:18.293856,14.24327019,.00086909,98.6736,163.2800,219.4250,140.6297,0,U,27844,999,18973,.16425086E-3,.336E-5,0
CUBESAT XI-IV (CO-57),2003-031J,2026-06-01T00:01:20.276832,14.23611465,.00082889,98.6768,160.4891,248.3946,111.6350,0,U,27848,999,18907,.14575851E-3,.288E-5,0
CUBESAT XI-V,2005-043F,2026-06-01T08:48:31.503456,14.72584583,.00128374,98.2967,307.6587,254.1655,105.8136,0,U,28895,999,9942,.27161207E-3,.1677E-4,0
CUTE-1.7+APD II (CO-65),2008-021C,2026-06-04T06:07:35.991552,15.09322060,.00106802,97.8272,136.4068,76.5592,283.6825,0,U,32785,999,98324,.35197659E-3,.5554E-4,0
CANX-2,2008-021H,2026-06-04T04:41:16.248480,15.05521233,.00124082,97.8638,134.7227,88.9525,271.3123,0,U,32790,999,98285,.31324516E-3,.445E-4,0
SEEDS II (CO-66),2008-021J,2026-06-03T13:18:22.326048,15.32257900,.00029913,97.7515,151.8069,42.0128,318.1342,0,U,32791,999,98520,.64842083E-3,.20146E-3,0
SWISSCUBE,2009-051B,2026-06-03T06:42:55.096704,14.62453382,.00053989,98.4045,61.9256,254.9932,105.0671,0,U,35932,999,88712,.25059349E-3,.122E-4,0
BEESAT-1,2009-051C,2026-06-03T14:58:59.003328,14.61697093,.00039096,98.3973,61.9398,272.0464,88.0289,0,U,35933,999,88720,.20663001E-3,.98E-5,0
ITUPSAT1,2009-051E,2026-06-03T06:15:28.683360,14.60418625,.00061718,98.4058,60.7773,286.3801,73.6720,0,U,35935,999,88670,.20304473E-3,.935E-5,0
TISAT 1,2010-035E,2026-06-03T07:55:54.974496,15.31153617,.00005682,98.0708,99.6565,17.2069,342.9189,0,U,36799,999,86558,.76310205E-3,.22924E-3,0
AEROCUBE 4.5A,2012-048K,2026-06-04T02:09:01.038240,15.86796703,.00191449,64.6273,74.5139,214.1007,145.8923,0,U,38767,999,37057,.11919673E-2,.309658E-2,.40837719E-4
STRAND-1,2013-009E,2026-06-04T00:52:51.152160,14.37155097,.00073872,98.3918,335.5952,270.6143,89.4198,0,U,39090,999,69517,.11291857E-3,.293E-5,0
BRITE-AUSTRIA,2013-009F,2026-06-04T01:03:13.912128,14.36536752,.00089685,98.3993,334.8055,280.8846,79.1332,0,U,39091,999,69516,.88188305E-4,.216E-5,0
NEE-01 PEGASO,2013-018B,2026-06-03T11:09:53.669664,14.93586684,.00121772,98.1207,298.1637,203.9081,156.1574,0,U,39151,999,70865,.30779545E-3,.319E-4,0
POPACS 2,2013-055E,2026-06-03T08:26:41.104896,14.90877898,.04173126,80.9903,160.0266,238.2636,117.7281,0,U,39269,999,66115,.20632521E-3,.12054E-3,0
POPACS 3,2013-055F,2026-06-02T06:36:37.334304,14.55806336,.05535069,81.0022,245.3481,115.3573,250.5997,0,U,39270,999,63638,.3181884E-3,.13492E-3,0
ZACUBE-1 (TSHEPISOSAT),2013-066B,2026-06-03T22:37:15.794688,15.01095965,.00399036,97.8107,117.2078,294.5657,65.1411,0,U,39417,999,67874,.35148087E-3,.451E-4,0
WNISAT-1,2013-066H,2026-06-03T23:11:23.012448,14.58041901,.01616767,97.7188,305.0620,273.5822,84.6901,0,U,39423,999,66480,.1358822E-3,.696E-5,0
TRITON-1,2013-066M,2026-06-04T06:17:08.068416,14.81658641,.008841,97.8259,65.3632,276.8265,82.2895,0,U,39427,999,67217,.34379348E-3,.2836E-4,0
GOMX-1,2013-066Q,2026-06-04T07:35:06.834912,14.69407998,.01299815,97.6486,356.5910,118.4120,243.0259,0,U,39430,999,66802,.33944267E-3,.2236E-4,0
CUBEBUG-2 (LO-74),2013-066AA,2026-06-03T07:55:56.668800,14.93641817,.00594532,97.8904,103.2522,73.9566,286.8190,0,U,39440,999,67492,.47122985E-3,.5093E-4,0
NEE-02 KRYSAOR,2013-066AB,2026-06-02T19:19:10.619328,14.86554787,.0067604,97.8894,93.1239,116.2445,244.5740,0,U,39441,999,67406,.2311691E-3,.2076E-4,0
FUNCUBE-1 (AO-73),2013-066AE,2026-06-03T17:33:37.044000,15.09317269,.00346977,97.8276,125.8984,248.4796,111.2732,0,U,39444,999,67763,.51138585E-3,.8204E-4,0
UWE-3,2013-066AG,2026-06-04T02:44:55.111200,14.96917145,.00493925,97.8703,111.1024,5.4277,354.7469,0,U,39446,999,67562,.38663104E-3,.4488E-4,0
BRITE-CA1 (TORONTO),2014-033L,2026-06-03T07:30:38.858400,14.72656654,.00777195,97.9723,283.4981,322.1342,37.4414,0,U,40020,999,64017,.12817401E-3,.802E-5,0
DUCHIFAT-1,2014-033M,2026-06-02T16:22:25.685472,15.61688703,.00050954,98.0473,210.8393,141.7306,218.4313,0,U,40021,999,65348,.11397187E-2,.99172E-3,0
NANOSATC-BR1,2014-033Q,2026-06-04T01:41:34.896192,15.31019931,.00030394,98.0721,186.3011,201.8474,158.2636,0,U,40024,999,65197,.62230174E-3,.18591E-3,0
QB50P1,2014-033R,2026-06-03T13:44:21.385536,15.18040602,.00070591,98.0967,164.7661,272.3380,87.7044,0,U,40025,999,65096,.48089613E-3,.9724E-4,0
QB50P2,2014-033Y,2026-06-04T05:18:47.814336,15.14981717,.00066415,98.0753,151.2965,207.6654,152.4224,0,U,40032,999,65070,.40866692E-3,.7558E-4,0
PERSEUS-M2,2014-033AD,2026-06-04T06:48:20.208672,14.95475132,.0011656,97.9969,105.5624,351.6967,8.4058,0,U,40037,999,64885,.28893732E-3,.3141E-4,0
